[{"OBJECT_NAME":"ONEWEB-0035","OBJECT_ID":"2020-008N","EPOCH":"2025-07-31T16:29:58.811136","MEAN_MOTION":13.10370644,"ECCENTRICITY":0.0001803,"INCLINATION":87.8794,"RA_OF_ASC_NODE":100.2165,"ARG_OF_PERICENTER":72.8565,"MEAN_ANOMALY":287.276,"EPHEMERIS_TYPE":0,"CLASSIFICATION_TYPE":"U","NORAD_CAT_ID":45143,"ELEMENT_SET_NO":999,"REV_AT_EPOCH":26596,"BSTAR":0.0012846,"MEAN_MOTION_DOT":4.61e-6,"MEAN_MOTION_DDOT":0},{"OBJECT_NAME":"ONEWEB-0036","OBJECT_ID":"2020-008P","EPOCH":"2025-07-31T18:05:34.719648","MEAN_MOTION":13.10377968,"ECCENTRICITY":0.0001809,"INCLINATION":87.8806,"RA_OF_ASC_NODE":100.146,"ARG_OF_PERICENTER":86.5108,"MEAN_ANOMALY":273.6226,"EPHEMERIS_TYPE":0,"CLASSIFICATION_TYPE":"U","NORAD_CAT_ID":45144,"ELEMENT_SET_NO":999,"REV_AT_EPOCH":26640,"BSTAR":0.0016809,"MEAN_MOTION_DOT":6.0e-6,"MEAN_MOTION_DDOT":0},{"OBJECT_NAME":"ONEWEB-0038","OBJECT_ID":"2020-008Q","EPOCH":"2025-07-31T17:20:19.597920","MEAN_MOTION":13.11415438,"ECCENTRICITY":0.0003514,"INCLINATION":87.8813,"RA_OF_ASC_NODE":84.9321,"ARG_OF_PERICENTER":68.5396,"MEAN_ANOMALY":291.6106,"EPHEMERIS_TYPE":0,"CLASSIFICATION_TYPE":"U","NORAD_CAT_ID":45145,"ELEMENT_SET_NO":999,"REV_AT_EPOCH":26832,"BSTAR":0.00096685,"MEAN_MOTION_DOT":3.55e-6,"MEAN_MOTION_DDOT":0},{"OBJECT_NAME":"ONEWEB-0039","OBJECT_ID":"2020-008R","EPOCH":"2025-08-01T04:40:12.147456","MEAN_MOTION":13.10374937,"ECCENTRICITY":0.000219,"INCLINATION":87.8801,"RA_OF_ASC_NODE":100.08,"ARG_OF_PERICENTER":86.7853,"MEAN_ANOMALY":273.3525,"EPHEMERIS_TYPE":0,"CLASSIFICATION_TYPE":"U","NORAD_CAT_ID":45146,"ELEMENT_SET_NO":999,"REV_AT_EPOCH":26703,"BSTAR":-3.857e-5,"MEAN_MOTION_DOT":-1.0e-8,"MEAN_MOTION_DDOT":0},{"OBJECT_NAME":"ONEWEB-0040","OBJECT_ID":"2020-008S","EPOCH":"2025-08-01T04:30:37.516608","MEAN_MOTION":13.10374851,"ECCENTRICITY":0.0001818,"INCLINATION":87.8807,"RA_OF_ASC_NODE":100.1098,"ARG_OF_PERICENTER":77.2499,"MEAN_ANOMALY":282.8832,"EPHEMERIS_TYPE":0,"CLASSIFICATION_TYPE":"U","NORAD_CAT_ID":45147,"ELEMENT_SET_NO":999,"REV_AT_EPOCH":26674,"BSTAR":-0.00098736,"MEAN_MOTION_DOT":-3.32e-6,"MEAN_MOTION_DDOT":0},{"OBJECT_NAME":"ONEWEB-0043","OBJECT_ID":"2020-008U","EPOCH":"2025-07-31T23:03:09.027360","MEAN_MOTION":13.10373982,"ECCENTRICITY":0.0001911,"INCLINATION":87.8804,"RA_OF_ASC_NODE":100.1397,"ARG_OF_PERICENTER":91.1219,"MEAN_ANOMALY":269.0127,"EPHEMERIS_TYPE":0,"CLASSIFICATION_TYPE":"U","NORAD_CAT_ID":45149,"ELEMENT_SET_NO":999,"REV_AT_EPOCH":26624,"BSTAR":-0.00070365,"MEAN_MOTION_DOT":-2.33e-6,"MEAN_MOTION_DDOT":0},{"OBJECT_NAME":"ONEWEB-0044","OBJECT_ID":"2020-008V","EPOCH":"2025-07-31T16:24:00.715104","MEAN_MOTION":13.10372744,"ECCENTRICITY":0.0001908,"INCLINATION":87.8798,"RA_OF_ASC_NODE":100.1866,"ARG_OF_PERICENTER":85.3338,"MEAN_ANOMALY":274.8008,"EPHEMERIS_TYPE":0,"CLASSIFICATION_TYPE":"U","NORAD_CAT_ID":45150,"ELEMENT_SET_NO":999,"REV_AT_EPOCH":26650,"BSTAR":0.0016084,"MEAN_MOTION_DOT":5.74e-6,"MEAN_MOTION_DDOT":0},{"OBJECT_NAME":"ONEWEB-0045","OBJECT_ID":"2020-008W","EPOCH":"2025-07-31T17:12:46.772928","MEAN_MOTION":13.11415849,"ECCENTRICITY":0.0001899,"INCLINATION":87.8809,"RA_OF_ASC_NODE":84.906,"ARG_OF_PERICENTER":78.9492,"MEAN_ANOMALY":281.185,"EPHEMERIS_TYPE":0,"CLASSIFICATION_TYPE":"U","NORAD_CAT_ID":45151,"ELEMENT_SET_NO":999,"REV_AT_EPOCH":26840,"BSTAR":0.0014058,"MEAN_MOTION_DOT":5.11e-6,"MEAN_MOTION_DDOT":0},{"OBJECT_NAME":"ONEWEB-0047","OBJECT_ID":"2020-008X","EPOCH":"2025-07-31T18:04:24.344256","MEAN_MOTION":13.10372682,"ECCENTRICITY":0.0001884,"INCLINATION":87.8801,"RA_OF_ASC_NODE":100.1819,"ARG_OF_PERICENTER":79.5364,"MEAN_ANOMALY":280.5976,"EPHEMERIS_TYPE":0,"CLASSIFICATION_TYPE":"U","NORAD_CAT_ID":45152,"ELEMENT_SET_NO":999,"REV_AT_EPOCH":26623,"BSTAR":0.0015698,"MEAN_MOTION_DOT":5.61e-6,"MEAN_MOTION_DDOT":0},{"OBJECT_NAME":"ONEWEB-0048","OBJECT_ID":"2020-008Y","EPOCH":"2025-07-31T17:57:13.861440","MEAN_MOTION":13.10375666,"ECCENTRICITY":0.0001832,"INCLINATION":87.8804,"RA_OF_ASC_NODE":100.2072,"ARG_OF_PERICENTER":79.535,"MEAN_ANOMALY":280.5984,"EPHEMERIS_TYPE":0,"CLASSIFICATION_TYPE":"U","NORAD_CAT_ID":45153,"ELEMENT_SET_NO":999,"REV_AT_EPOCH":26584,"BSTAR":0.0016426,"MEAN_MOTION_DOT":5.86e-6,"MEAN_MOTION_DDOT":0},{"OBJECT_NAME":"ONEWEB-0049","OBJECT_ID":"2020-008Z","EPOCH":"2025-08-01T05:00:33.109056","MEAN_MOTION":13.10375051,"ECCENTRICITY":0.0001451,"INCLINATION":87.8799,"RA_OF_ASC_NODE":100.1086,"ARG_OF_PERICENTER":89.9041,"MEAN_ANOMALY":270.2253,"EPHEMERIS_TYPE":0,"CLASSIFICATION_TYPE":"U","NORAD_CAT_ID":45154,"ELEMENT_SET_NO":999,"REV_AT_EPOCH":26690,"BSTAR":0.0017756,"MEAN_MOTION_DOT":6.33e-6,"MEAN_MOTION_DDOT":0},{"OBJECT_NAME":"ONEWEB-0051","OBJECT_ID":"2020-008AA","EPOCH":"2025-07-31T22:39:56.901312","MEAN_MOTION":13.11415866,"ECCENTRICITY":0.000175,"INCLINATION":87.8804,"RA_OF_ASC_NODE":84.904,"ARG_OF_PERICENTER":77.5035,"MEAN_ANOMALY":282.6289,"EPHEMERIS_TYPE":0,"CLASSIFICATION_TYPE":"U","NORAD_CAT_ID":45155,"ELEMENT_SET_NO":999,"REV_AT_EPOCH":26911,"BSTAR":0.0014525,"MEAN_MOTION_DOT":5.28e-6,"MEAN_MOTION_DDOT":0},{"OBJECT_NAME":"ONEWEB-0052","OBJECT_ID":"2020-008AB","EPOCH":"2025-07-31T23:23:29.893056","MEAN_MOTION":13.10375639,"ECCENTRICITY":0.0001507,"INCLINATION":87.8819,"RA_OF_ASC_NODE":100.1012,"ARG_OF_PERICENTER":94.5751,"MEAN_ANOMALY":265.5548,"EPHEMERIS_TYPE":0,"CLASSIFICATION_TYPE":"U","NORAD_CAT_ID":45156,"ELEMENT_SET_NO":999,"REV_AT_EPOCH":26600,"BSTAR":0.0011209,"MEAN_MOTION_DOT":4.04e-6,"MEAN_MOTION_DDOT":0},{"OBJECT_NAME":"ONEWEB-0053","OBJECT_ID":"2020-008AC","EPOCH":"2025-07-31T22:58:22.781568","MEAN_MOTION":13.10376838,"ECCENTRICITY":0.0002131,"INCLINATION":87.8804,"RA_OF_ASC_NODE":100.1628,"ARG_OF_PERICENTER":81.2131,"MEAN_ANOMALY":278.9238,"EPHEMERIS_TYPE":0,"CLASSIFICATION_TYPE":"U","NORAD_CAT_ID":45157,"ELEMENT_SET_NO":999,"REV_AT_EPOCH":26597,"BSTAR":-0.0013171,"MEAN_MOTION_DOT":-4.47e-6,"MEAN_MOTION_DDOT":0},{"OBJECT_NAME":"ONEWEB-0054","OBJECT_ID":"2020-008AD","EPOCH":"2025-07-31T16:28:47.253792","MEAN_MOTION":13.1037088,"ECCENTRICITY":0.0001737,"INCLINATION":87.8796,"RA_OF_ASC_NODE":100.1908,"ARG_OF_PERICENTER":77.552,"MEAN_ANOMALY":282.5802,"EPHEMERIS_TYPE":0,"CLASSIFICATION_TYPE":"U","NORAD_CAT_ID":45158,"ELEMENT_SET_NO":999,"REV_AT_EPOCH":26605,"BSTAR":0.0010004,"MEAN_MOTION_DOT":3.62e-6,"MEAN_MOTION_DDOT":0},{"OBJECT_NAME":"ONEWEB-0056","OBJECT_ID":"2020-008AE","EPOCH":"2025-07-31T23:21:06.575328","MEAN_MOTION":13.10374888,"ECCENTRICITY":0.0001795,"INCLINATION":87.8802,"RA_OF_ASC_NODE":100.1305,"ARG_OF_PERICENTER":78.5681,"MEAN_ANOMALY":281.5647,"EPHEMERIS_TYPE":0,"CLASSIFICATION_TYPE":"U","NORAD_CAT_ID":45159,"ELEMENT_SET_NO":999,"REV_AT_EPOCH":26624,"BSTAR":0.00099799,"MEAN_MOTION_DOT":3.61e-6,"MEAN_MOTION_DDOT":0},{"OBJECT_NAME":"ONEWEB-0057","OBJECT_ID":"2020-008AF","EPOCH":"2025-07-31T18:02:01.134528","MEAN_MOTION":13.10373849,"ECCENTRICITY":0.000183,"INCLINATION":87.8801,"RA_OF_ASC_NODE":100.1885,"ARG_OF_PERICENTER":83.1452,"MEAN_ANOMALY":276.9883,"EPHEMERIS_TYPE":0,"CLASSIFICATION_TYPE":"U","NORAD_CAT_ID":45160,"ELEMENT_SET_NO":999,"REV_AT_EPOCH":26638,"BSTAR":0.0014177,"MEAN_MOTION_DOT":5.08e-6,"MEAN_MOTION_DDOT":0}]
