ONEWEB-0035             
1 45143U 20008N   25212.68748624  .00000461  00000+0  12846-2 0  9997
2 45143  87.8794 100.2165 0001803  72.8565 287.2760 13.10370644265961
ONEWEB-0036             
1 45144U 20008P   25212.75387407  .00000600  00000+0  16809-2 0  9992
2 45144  87.8806 100.1460 0001809  86.5108 273.6226 13.10377968266406
ONEWEB-0038             
1 45145U 20008Q   25212.72244905  .00000355  00000+0  96685-3 0  9993
2 45145  87.8813  84.9321 0003514  68.5396 291.6106 13.11415438268320
ONEWEB-0039             
1 45146U 20008R   25213.19458504 -.00000001  00000+0 -38570-4 0  9998
2 45146  87.8801 100.0800 0002190  86.7853 273.3525 13.10374937267035
ONEWEB-0040             
1 45147U 20008S   25213.18793422 -.00000332  00000+0 -98736-3 0  9995
2 45147  87.8807 100.1098 0001818  77.2499 282.8832 13.10374851266747
ONEWEB-0043             
1 45149U 20008U   25212.96052115 -.00000233  00000+0 -70365-3 0  9997
2 45149  87.8804 100.1397 0001911  91.1219 269.0127 13.10373982266240
ONEWEB-0044             
1 45150U 20008V   25212.68334161  .00000574  00000+0  16084-2 0  9995
2 45150  87.8798 100.1866 0001908  85.3338 274.8008 13.10372744266504
ONEWEB-0045             
1 45151U 20008W   25212.71720802  .00000511  00000+0  14058-2 0  9991
2 45151  87.8809  84.9060 0001899  78.9492 281.1850 13.11415849268403
ONEWEB-0047             
1 45152U 20008X   25212.75305954  .00000561  00000+0  15698-2 0  9999
2 45152  87.8801 100.1819 0001884  79.5364 280.5976 13.10372682266235
ONEWEB-0048             
1 45153U 20008Y   25212.74807710  .00000586  00000+0  16426-2 0  9993
2 45153  87.8804 100.2072 0001832  79.5350 280.5984 13.10375666265849
ONEWEB-0049             
1 45154U 20008Z   25213.20871654  .00000633  00000+0  17756-2 0  9994
2 45154  87.8799 100.1086 0001451  89.9041 270.2253 13.10375051266907
ONEWEB-0051             
1 45155U 20008AA  25212.94440858  .00000528  00000+0  14525-2 0  9997
2 45155  87.8804  84.9040 0001750  77.5035 282.6289 13.11415866269114
ONEWEB-0052             
1 45156U 20008AB  25212.97465154  .00000404  00000+0  11209-2 0  9996
2 45156  87.8819 100.1012 0001507  94.5751 265.5548 13.10375639266000
ONEWEB-0053             
1 45157U 20008AC  25212.95720812 -.00000447  00000+0 -13171-2 0  9999
2 45157  87.8804 100.1628 0002131  81.2131 278.9238 13.10376838265978
ONEWEB-0054             
1 45158U 20008AD  25212.68665803  .00000362  00000+0  10004-2 0  9994
2 45158  87.8796 100.1908 0001737  77.5520 282.5802 13.10370880266050
ONEWEB-0056             
1 45159U 20008AE  25212.97299277  .00000361  00000+0  99799-3 0  9993
2 45159  87.8802 100.1305 0001795  78.5681 281.5647 13.10374888266242
ONEWEB-0057             
1 45160U 20008AF  25212.75140202  .00000508  00000+0  14177-2 0  9993
2 45160  87.8801 100.1885 0001830  83.1452 276.9883 13.10373849266385
